[{"OBJECT_NAME":"STARLINK-35250","OBJECT_ID":"2025-207M","EPOCH":"2026-03-09T18:04:32.435616","MEAN_MOTION":15.05641543,"ECCENTRICITY":0.00012259,"INCLINATION":97.6026,"RA_OF_ASC_NODE":138.767,"ARG_OF_PERICENTER":136.4166,"MEAN_ANOMALY":223.7158,"EPHEMERIS_TYPE":0,"CLASSIFICATION_TYPE":"U","NORAD_CAT_ID":65603,"ELEMENT_SET_NO":999,"REV_AT_EPOCH":2827,"BSTAR":0.00017022586,"MEAN_MOTION_DOT":2.396e-5,"MEAN_MOTION_DDOT":0},{"OBJECT_NAME":"PEGASUS DEB","OBJECT_ID":"1994-029WD","EPOCH":"2026-03-09T21:43:57.366912","MEAN_MOTION":14.89136591,"ECCENTRICITY":0.01058593,"INCLINATION":81.9743,"RA_OF_ASC_NODE":221.1497,"ARG_OF_PERICENTER":252.4191,"MEAN_ANOMALY":235.9905,"EPHEMERIS_TYPE":0,"CLASSIFICATION_TYPE":"U","NORAD_CAT_ID":24529,"ELEMENT_SET_NO":999,"REV_AT_EPOCH":23750,"BSTAR":0.00030874262,"MEAN_MOTION_DOT":3.26e-5,"MEAN_MOTION_DDOT":0}]
